ASTROCAST-0402          
1 55109U 23001DE  26068.80661100  .00010930  00000+0  41835-3 0  9996
2 55109  97.5556 160.6821 0004209 216.6984 143.3966 15.26734153129364
STARLINK-31542          
1 59194U 24045S   26068.47876661 -.00000679  00000+0 -15163-4 0  9993
2 59194  43.0024  93.3421 0001265 268.1619  91.9087 15.27560483113136
